start=new Date('2022-12-20T00:00:00.000Z').valueOf();
sats=[{"BSTAR":"0.00022172000000","OBJECT_TYPE":"PAYLOAD","APOAPSIS":"564.628","NORAD_CAT_ID":"53484","EPOCH":"2022-12-19T14:53:43.454112","ARG_OF_PERICENTER":"41.5629","TLE_LINE1":"1 53484U 22099V   22353.62064183  .00002791  00000-0  22172-3 0  9997","SITE":"AFWTR","INCLINATION":"97.6562","PERIOD":"95.919","OBJECT_NAME":"STARLINK-4426","MEAN_ELEMENT_THEORY":"SGP4","RCS_SIZE":"LARGE","ELEMENT_SET_NO":"999","ECCENTRICITY":"0.00023660","DECAY_DATE":null,"CLASSIFICATION_TYPE":"U","MEAN_MOTION_DOT":"0.00002791","FILE":"3711774","GP_ID":"220971177","MEAN_MOTION":"15.01268410","PERIAPSIS":"561.344","MEAN_ANOMALY":"318.5775","COUNTRY_CODE":"US","TLE_LINE2":"2 53484  97.6562 112.2774 0002366  41.5629 318.5775 15.01268410 19531","OBJECT_ID":"2022-099V","SEMIMAJOR_AXIS":"6941.121","EPHEMERIS_TYPE":"0","TIME_SYSTEM":"UTC","LAUNCH_DATE":"2022-08-12","REF_FRAME":"TEME","MEAN_MOTION_DDOT":"0.0000000000000","RA_OF_ASC_NODE":"112.2774","CENTER_NAME":"EARTH","REV_AT_EPOCH":"1953"},{"INCLINATION":"97.6550","TLE_LINE1":"1 53485U 22099W   22353.61509537  .00001836  00000-0  14742-3 0  9997","SITE":"AFWTR","ELEMENT_SET_NO":"999","RCS_SIZE":"LARGE","OBJECT_NAME":"STARLINK-4430","MEAN_ELEMENT_THEORY":"SGP4","PERIOD":"95.919","ARG_OF_PERICENTER":"14.7758","EPOCH":"2022-12-19T14:45:44.239968","APOAPSIS":"563.801","NORAD_CAT_ID":"53485","OBJECT_TYPE":"PAYLOAD","BSTAR":"0.00014742000000","TIME_SYSTEM":"UTC","REV_AT_EPOCH":"1953","CENTER_NAME":"EARTH","MEAN_MOTION_DDOT":"0.0000000000000","REF_FRAME":"TEME","RA_OF_ASC_NODE":"112.2739","LAUNCH_DATE":"2022-08-12","FILE":"3711774","GP_ID":"220970541","MEAN_MOTION":"15.01270291","PERIAPSIS":"562.160","MEAN_MOTION_DOT":"0.00001836","CLASSIFICATION_TYPE":"U","DECAY_DATE":null,"ECCENTRICITY":"0.00011820","EPHEMERIS_TYPE":"0","SEMIMAJOR_AXIS":"6941.115","OBJECT_ID":"2022-099W","TLE_LINE2":"2 53485  97.6550 112.2739 0001182  14.7758 345.3500 15.01270291 19534","MEAN_ANOMALY":"345.3500","COUNTRY_CODE":"US"},{"BSTAR":"0.00017993000000","OBJECT_TYPE":"PAYLOAD","EPOCH":"2022-12-19T21:14:59.659872","ARG_OF_PERICENTER":"21.9559","NORAD_CAT_ID":"53486","APOAPSIS":"564.592","TLE_LINE1":"1 53486U 22099X   22353.88541273  .00002253  00000-0  17993-3 0  9995","SITE":"AFWTR","INCLINATION":"97.6560","RCS_SIZE":"LARGE","ELEMENT_SET_NO":"999","PERIOD":"95.920","OBJECT_NAME":"STARLINK-4431","MEAN_ELEMENT_THEORY":"SGP4","DECAY_DATE":null,"ECCENTRICITY":"0.00022600","MEAN_MOTION_DOT":"0.00002253","PERIAPSIS":"561.455","GP_ID":"220979364","FILE":"3712095","MEAN_MOTION":"15.01256158","CLASSIFICATION_TYPE":"U","COUNTRY_CODE":"US","MEAN_ANOMALY":"338.1762","TLE_LINE2":"2 53486  97.6560 112.5388 0002260  21.9559 338.1762 15.01256158 19813","EPHEMERIS_TYPE":"0","OBJECT_ID":"2022-099X","SEMIMAJOR_AXIS":"6941.159","TIME_SYSTEM":"UTC","MEAN_MOTION_DDOT":"0.0000000000000","RA_OF_ASC_NODE":"112.5388","REF_FRAME":"TEME","LAUNCH_DATE":"2022-08-12","REV_AT_EPOCH":"1981","CENTER_NAME":"EARTH"},{"COUNTRY_CODE":"US","MEAN_ANOMALY":"341.3227","TLE_LINE2":"2 53487  97.6561 112.2742 0002665  18.8095 341.3227 15.01261948 19539","OBJECT_ID":"2022-099Y","SEMIMAJOR_AXIS":"6941.141","EPHEMERIS_TYPE":"0","ECCENTRICITY":"0.00026650","DECAY_DATE":null,"CLASSIFICATION_TYPE":"U","MEAN_MOTION_DOT":"0.00001244","FILE":"3711774","GP_ID":"220970969","MEAN_MOTION":"15.01261948","PERIAPSIS":"561.156","LAUNCH_DATE":"2022-08-12","REF_FRAME":"TEME","MEAN_MOTION_DDOT":"0.0000000000000","RA_OF_ASC_NODE":"112.2742","REV_AT_EPOCH":"1953","CENTER_NAME":"EARTH","TIME_SYSTEM":"UTC","BSTAR":"0.00010142000000","OBJECT_TYPE":"PAYLOAD","APOAPSIS":"564.856","NORAD_CAT_ID":"53487","EPOCH":"2022-12-19T14:40:23.876544","ARG_OF_PERICENTER":"18.8095","PERIOD":"95.919","MEAN_ELEMENT_THEORY":"SGP4","OBJECT_NAME":"STARLINK-4432","RCS_SIZE":"LARGE","ELEMENT_SET_NO":"999","TLE_LINE1":"1 53487U 22099Y   22353.61138746  .00001244  00000-0  10142-3 0  9992","SITE":"AFWTR","INCLINATION":"97.6561"},{"ELEMENT_SET_NO":"999","RCS_SIZE":"LARGE","OBJECT_NAME":"STARLINK-4421","MEAN_ELEMENT_THEORY":"SGP4","PERIOD":"95.919","SITE":"AFWTR","TLE_LINE1":"1 53488U 22099Z   22353.61694830  .00001979  00000-0  15866-3 0  9997","INCLINATION":"97.6564","BSTAR":"0.00015866000000","OBJECT_TYPE":"PAYLOAD","ARG_OF_PERICENTER":"37.8295","EPOCH":"2022-12-19T14:48:24.333120","NORAD_CAT_ID":"53488","APOAPSIS":"564.317","REF_FRAME":"TEME","MEAN_MOTION_DDOT":"0.0000000000000","RA_OF_ASC_NODE":"112.2763","LAUNCH_DATE":"2022-08-12","REV_AT_EPOCH":"1953","CENTER_NAME":"EARTH","TIME_SYSTEM":"UTC","TLE_LINE2":"2 53488  97.6564 112.2763 0001884  37.8295 322.3061 15.01260686 19534","COUNTRY_CODE":"US","MEAN_ANOMALY":"322.3061","EPHEMERIS_TYPE":"0","SEMIMAJOR_AXIS":"6941.145","OBJECT_ID":"2022-099Z","DECAY_DATE":null,"ECCENTRICITY":"0.00018840","FILE":"3711774","GP_ID":"220971600","MEAN_MOTION":"15.01260686","PERIAPSIS":"561.702","MEAN_MOTION_DOT":"0.00001979","CLASSIFICATION_TYPE":"U"},{"BSTAR":"0.00081448000000","OBJECT_TYPE":"PAYLOAD","APOAPSIS":"564.952","NORAD_CAT_ID":"53489","EPOCH":"2022-12-19T16:13:42.168864","ARG_OF_PERICENTER":"3.9665","PERIOD":"95.918","MEAN_ELEMENT_THEORY":"SGP4","OBJECT_NAME":"STARLINK-4392","RCS_SIZE":"LARGE","ELEMENT_SET_NO":"999","TLE_LINE1":"1 53489U 22099AA  22353.67618251  .00010423  00000-0  81448-3 0  9990","SITE":"AFWTR","INCLINATION":"97.6553","COUNTRY_CODE":"US","MEAN_ANOMALY":"356.1582","TLE_LINE2":"2 53489  97.6553 112.3387 0002870   3.9665 356.1582 15.01276855 19546","OBJECT_ID":"2022-099AA","SEMIMAJOR_AXIS":"6941.095","EPHEMERIS_TYPE":"0","ECCENTRICITY":"0.00028700","DECAY_DATE":null,"CLASSIFICATION_TYPE":"U","MEAN_MOTION_DOT":"0.00010423","PERIAPSIS":"560.968","GP_ID":"220970111","FILE":"3711774","MEAN_MOTION":"15.01276855","LAUNCH_DATE":"2022-08-12","RA_OF_ASC_NODE":"112.3387","MEAN_MOTION_DDOT":"0.0000000000000","REF_FRAME":"TEME","REV_AT_EPOCH":"1954","CENTER_NAME":"EARTH","TIME_SYSTEM":"UTC"},{"TIME_SYSTEM":"UTC","REV_AT_EPOCH":"1982","CENTER_NAME":"EARTH","RA_OF_ASC_NODE":"112.6009","MEAN_MOTION_DDOT":"0.0000000000000","REF_FRAME":"TEME","LAUNCH_DATE":"2022-08-12","MEAN_MOTION_DOT":"0.00003720","GP_ID":"220979361","FILE":"3712095","MEAN_MOTION":"15.01263122","PERIAPSIS":"561.395","CLASSIFICATION_TYPE":"U","DECAY_DATE":null,"ECCENTRICITY":"0.00023150","EPHEMERIS_TYPE":"0","OBJECT_ID":"2022-099AB","SEMIMAJOR_AXIS":"6941.137","COUNTRY_CODE":"US","MEAN_ANOMALY":"356.9975","TLE_LINE2":"2 53490  97.6554 112.6009 0002315   3.1263 356.9975 15.01263122 19821","INCLINATION":"97.6554","TLE_LINE1":"1 53490U 22099AB  22353.94651134  .00003720  00000-0  29401-3 0  9992","SITE":"AFWTR","RCS_SIZE":"LARGE","ELEMENT_SET_NO":"999","PERIOD":"95.919","OBJECT_NAME":"STARLINK-4387","MEAN_ELEMENT_THEORY":"SGP4","EPOCH":"2022-12-19T22:42:58.579776","ARG_OF_PERICENTER":"3.1263","APOAPSIS":"564.609","NORAD_CAT_ID":"53490","BSTAR":"0.00029401000000","OBJECT_TYPE":"PAYLOAD"},{"NORAD_CAT_ID":"53491","APOAPSIS":"565.091","EPOCH":"2022-12-19T22:32:17.039904","ARG_OF_PERICENTER":"21.0000","BSTAR":"0.00018180000000","OBJECT_TYPE":"PAYLOAD","INCLINATION":"97.6558","SITE":"AFWTR","TLE_LINE1":"1 53491U 22099AC  22353.93908611  .00002277  00000-0  18180-3 0  9995","PERIOD":"95.919","MEAN_ELEMENT_THEORY":"SGP4","OBJECT_NAME":"STARLINK-4450","RCS_SIZE":"LARGE","ELEMENT_SET_NO":"999","CLASSIFICATION_TYPE":"U","MEAN_MOTION_DOT":"0.00002277","PERIAPSIS":"560.900","GP_ID":"220979039","FILE":"3712096","MEAN_MOTION":"15.01265170","ECCENTRICITY":"0.00030190","DECAY_DATE":null,"OBJECT_ID":"2022-099AC","SEMIMAJOR_AXIS":"6941.131","EPHEMERIS_TYPE":"0","COUNTRY_CODE":"US","MEAN_ANOMALY":"339.1348","TLE_LINE2":"2 53491  97.6558 112.5976 0003019  21.0000 339.1348 15.01265170 19820","TIME_SYSTEM":"UTC","REV_AT_EPOCH":"1982","CENTER_NAME":"EARTH","LAUNCH_DATE":"2022-08-12","MEAN_MOTION_DDOT":"0.0000000000000","RA_OF_ASC_NODE":"112.5976","REF_FRAME":"TEME"},{"ELEMENT_SET_NO":"999","RCS_SIZE":"LARGE","MEAN_ELEMENT_THEORY":"SGP4","OBJECT_NAME":"STARLINK-4451","PERIOD":"95.919","TLE_LINE1":"1 53492U 22099AD  22353.94303332  .00003190  00000-0  25278-3 0  9997","SITE":"AFWTR","INCLINATION":"97.6557","OBJECT_TYPE":"PAYLOAD","BSTAR":"0.00025278000000","ARG_OF_PERICENTER":"21.1312","EPOCH":"2022-12-19T22:37:58.078848","NORAD_CAT_ID":"53492","APOAPSIS":"564.581","MEAN_MOTION_DDOT":"0.0000000000000","REF_FRAME":"TEME","RA_OF_ASC_NODE":"112.5997","LAUNCH_DATE":"2022-08-12","REV_AT_EPOCH":"1982","CENTER_NAME":"EARTH","TIME_SYSTEM":"UTC","TLE_LINE2":"2 53492  97.6557 112.5997 0002325  21.1312 339.0008 15.01274348 19828","COUNTRY_CODE":"US","MEAN_ANOMALY":"339.0008","EPHEMERIS_TYPE":"0","SEMIMAJOR_AXIS":"6941.103","OBJECT_ID":"2022-099AD","DECAY_DATE":null,"ECCENTRICITY":"0.00023250","PERIAPSIS":"561.354","GP_ID":"220979377","FILE":"3712096","MEAN_MOTION":"15.01274348","MEAN_MOTION_DOT":"0.00003190","CLASSIFICATION_TYPE":"U"},{"MEAN_MOTION_DDOT":"0.0000000000000","RA_OF_ASC_NODE":"112.5257","REF_FRAME":"TEME","LAUNCH_DATE":"2022-08-12","CENTER_NAME":"EARTH","REV_AT_EPOCH":"1981","TIME_SYSTEM":"UTC","TLE_LINE2":"2 53493  97.6536 112.5257 0002434 358.4257   1.6959 15.01275278 19819","COUNTRY_CODE":"US","MEAN_ANOMALY":"1.6959","EPHEMERIS_TYPE":"0","SEMIMAJOR_AXIS":"6941.100","OBJECT_ID":"2022-099AE","DECAY_DATE":null,"ECCENTRICITY":"0.00024340","GP_ID":"220979044","PERIAPSIS":"561.275","FILE":"3712096","MEAN_MOTION":"15.01275278","MEAN_MOTION_DOT":"0.00005203","CLASSIFICATION_TYPE":"U","ELEMENT_SET_NO":"999","RCS_SIZE":"LARGE","MEAN_ELEMENT_THEORY":"SGP4","OBJECT_NAME":"STARLINK-4361","PERIOD":"95.918","SITE":"AFWTR","TLE_LINE1":"1 53493U 22099AE  22353.86899164  .00005203  00000-0  40917-3 0  9996","INCLINATION":"97.6536","BSTAR":"0.00040917000000","OBJECT_TYPE":"PAYLOAD","ARG_OF_PERICENTER":"358.4257","EPOCH":"2022-12-19T20:51:20.877696","NORAD_CAT_ID":"53493","APOAPSIS":"564.654"}];
